GLOBALSTAR M001         
1 25162U 98008A   25141.71148296 -.00000067  00000+0  23097-3 0  9999
2 25162  52.0051  50.2820 0001071 171.8027 223.0523 12.38213526240548
GLOBALSTAR M004         
1 25163U 98008B   25142.12866549 -.00000063  00000+0  22458-3 0  9990
2 25163  51.9977 133.6487 0002937 234.8279 202.7806 12.63396230258493
GLOBALSTAR M003         
1 25165U 98008D   25141.55491874 -.00000110  00000+0 -22022-3 0  9994
2 25165  51.9992 242.2838 0007849 236.5162 137.2924 12.12076419230082
GLOBALSTAR M014         
1 25306U 98023A   25141.99186205 -.00000071  00000+0  11690-3 0  9999
2 25306  51.9830 229.6607 0000623 287.1309 243.9288 11.65480741188108
GLOBALSTAR M006         
1 25307U 98023B   25141.55131476 -.00000037  00000+0  79218-3 0  9994
2 25307  51.9945 282.2511 0003589  67.7134  11.3064 11.58175786213859
GLOBALSTAR M015         
1 25308U 98023C   25142.14850560 -.00000093  00000+0 -43634-3 0  9999
2 25308  51.9850  18.0399 0013058  31.4380 139.2157 11.48858930191460
GLOBALSTAR M008         
1 25309U 98023D   25141.55323084 -.00000085  00000+0  89924-4 0  9993
2 25309  51.9972 275.2732 0003339 120.8102 319.1778 12.36069205234867
